ONEWEB-0312             
1 49098U 21075Z   26165.83290039  .00000007  00000+0 -13967-4 0  9996
2 49098  87.9132   6.3419 0002166  92.1823 267.9557 13.17652774233298
ONEWEB-0313             
1 49099U 21075AA  26165.83780330  .00000184  00000+0  44067-3 0  9994
2 49099  87.9130   6.3468 0002000  86.6054 273.5307 13.17648994233286
ONEWEB-0314             
1 49100U 21075AB  26165.57639551  .00000089  00000+0  19722-3 0  9990
2 49100  87.9143   6.3710 0002232  91.7635 268.3752 13.17649204233227
ONEWEB-0315             
1 49101U 21075AC  26165.76890971 -.00000325  00000+0 -93830-3 0  9994
2 49101  87.8946 351.1252 0002125  82.4932 277.6438 13.12444079234850
ONEWEB-0316             
1 49102U 21075AD  26165.73076907  .00000054  00000+0  10332-3 0  9990
2 49102  87.9162 335.9450 0001920  91.4229 268.7123 13.18686841236881
ONEWEB-0317             
1 49103U 21075AE  26165.77229968 -.00000364  00000+0 -10464-2 0  9993
2 49103  87.8951 351.1486 0001474 112.8907 247.2377 13.12443494234870
ONEWEB-0318             
1 49104U 21075AF  26165.72739909  .00000071  00000+0  14775-3 0  9993
2 49104  87.9169 335.9471 0002043  86.8938 273.2428 13.18686075236849
ONEWEB-0319             
1 49105U 21075AG  26165.81938292  .00000042  00000+0  74660-4 0  9998
2 49105  87.9134   6.3393 0002246  77.2705 282.8678 13.17648773233296
ONEWEB-0323             
1 49106U 21075AH  26165.75366834  .00000037  00000+0  67423-4 0  9992
2 49106  87.8948 351.1333 0002321  83.2653 276.8740 13.12442749234235
ONEWEB-0329             
1 49107U 21075AJ  26165.82782089  .00000042  00000+0  74902-4 0  9991
2 49107  87.9134   6.3384 0002023  89.1787 270.9576 13.17648720233278
ONEWEB-0330             
1 49108U 21075AK  26165.85159550  .00000131  00000+0  30401-3 0  9990
2 49108  87.9137   6.3537 0002047  93.4482 266.6884 13.17649255233311
ONEWEB-0292             
1 49186U 21083A   26165.72788815  .00000402  00000+0  10660-2 0  9998
2 49186  87.8943 320.7282 0001934  91.6332 268.5019 13.13471198230604
ONEWEB-0303             
1 49187U 21083B   26165.72402574  .00000055  00000+0  10790-3 0  9993
2 49187  87.9164 335.9465 0002004  89.5783 270.5579 13.18686878229652
ONEWEB-0306             
1 49188U 21083C   26165.86565714  .00000010  00000+0 -70189-5 0  9997
2 49188  87.9170 335.9059 0001722  98.8409 261.2918 13.18687329229716
ONEWEB-0307             
1 49189U 21083D   26165.72195561  .00000363  00000+0  95803-3 0  9990
2 49189  87.8949 320.7262 0001975  94.7109 265.4246 13.13470623230602
ONEWEB-0320             
1 49190U 21083E   26165.73413282  .00000073  00000+0  15211-3 0  9999
2 49190  87.9158 335.9507 0001822  93.3094 266.8246 13.18686007229654
ONEWEB-0321             
1 49191U 21083F   26165.85258772  .00000017  00000+0  10372-4 0  9996
2 49191  87.9191 274.9000 0001797 107.3922 252.7408 13.20772201236522
ONEWEB-0322             
1 49192U 21083G   26165.79387622  .00000157  00000+0  39474-3 0  9995
2 49192  87.8950 320.7124 0001376  99.4135 260.7150 13.13469645230605
ONEWEB-0324             
1 49193U 21083H   26165.85890733  .00000015  00000+0  54008-5 0  9990
2 49193  87.9170 335.9127 0001957  97.3770 262.7585 13.18685163229690
ONEWEB-0325             
1 49194U 21083J   26165.86228477  .00000009  00000+0 -91089-5 0  9996
2 49194  87.9161 335.9206 0001794  89.8255 270.3082 13.18685757229700
ONEWEB-0326             
1 49195U 21083K   26165.72584669  .00000046  00000+0  83723-4 0  9995
2 49195  87.9169 335.9456 0002035  85.7471 274.3893 13.18685374229675
ONEWEB-0327             
1 49196U 21083L   26165.72556595  .00000086  00000+0  18587-3 0  9992
2 49196  87.9160 335.9500 0001993  81.1146 279.0211 13.18684922229694
ONEWEB-0328             
1 49197U 21083M   26165.85991602 -.00000018  00000+0 -82890-4 0  9995
2 49197  87.8960 320.6721 0001942  99.3420 260.7929 13.13470338230591
ONEWEB-0331             
1 49198U 21083N   26165.71896005  .00000016  00000+0  67448-5 0  9991
2 49198  87.9169 335.9405 0002140  86.7192 273.4184 13.18686584229688
ONEWEB-0333             
1 49199U 21083P   26165.85483406 -.00000126  00000+0 -38017-3 0  9996
2 49199  87.8948 320.6997 0001815  94.6560 265.4776 13.13470752230600
ONEWEB-0334             
1 49200U 21083Q   26165.33929918  .00030192  00000+0  73601-1 0  9995
2 49200  87.9189 275.0121 0000952 165.4093 194.7068 13.21115909236414
ONEWEB-0335             
1 49201U 21083R   26165.84975741 -.00000242  00000+0 -69898-3 0  9997
2 49201  87.8952 320.6978 0001990  93.1078 267.0279 13.13470986230616
ONEWEB-0336             
1 49202U 21083S   26165.82097781  .00000059  00000+0  12695-3 0  9992
2 49202  87.8950 320.6989 0002230  93.3441 266.7944 13.13469685230609
ONEWEB-0337             
1 49203U 21083T   26165.83099992 -.00000155  00000+0 -45963-3 0  9993
2 49203  87.8949 320.7029 0002030  98.3302 261.8057 13.13469384230600
ONEWEB-0338             
1 49204U 21083U   26165.84416299  .00000019  00000+0  15757-4 0  9994
2 49204  87.9182 274.9158 0001666 103.0348 257.0971 13.20773717236505
ONEWEB-0339             
1 49205U 21083V   26165.83959488 -.00000266  00000+0 -76400-3 0  9993
2 49205  87.8949 320.6935 0001637 103.0428 257.0884 13.13470124230588
