OBJECT_NAME,OBJECT_ID,EPOCH,MEAN_MOTION,ECCENTRICITY,INCLINATION,RA_OF_ASC_NODE,ARG_OF_PERICENTER,MEAN_ANOMALY,EPHEMERIS_TYPE,CLASSIFICATION_TYPE,NORAD_CAT_ID,ELEMENT_SET_NO,REV_AT_EPOCH,BSTAR,MEAN_MOTION_DOT,MEAN_MOTION_DDOT
ONEWEB-0312,2021-075Z,2026-06-14T19:59:22.593696,13.17652774,.0002166,87.9132,6.3419,92.1823,267.9557,0,U,49098,999,23329,-.13967E-4,.7E-7,0
ONEWEB-0313,2021-075AA,2026-06-14T20:06:26.205120,13.17648994,.0002,87.9130,6.3468,86.6054,273.5307,0,U,49099,999,23328,.44067E-3,.184E-5,0
ONEWEB-0314,2021-075AB,2026-06-14T13:50:00.572064,13.17649204,.0002232,87.9143,6.3710,91.7635,268.3752,0,U,49100,999,23322,.19722E-3,.89E-6,0
ONEWEB-0315,2021-075AC,2026-06-14T18:27:13.798944,13.12444079,.0002125,87.8946,351.1252,82.4932,277.6438,0,U,49101,999,23485,-.9383E-3,-.325E-5,0
ONEWEB-0316,2021-075AD,2026-06-14T17:32:18.447648,13.18686841,.000192,87.9162,335.9450,91.4229,268.7123,0,U,49102,999,23688,.10332E-3,.54E-6,0
ONEWEB-0317,2021-075AE,2026-06-14T18:32:06.692352,13.12443494,.0001474,87.8951,351.1486,112.8907,247.2377,0,U,49103,999,23487,-.10464E-2,-.364E-5,0
ONEWEB-0318,2021-075AF,2026-06-14T17:27:27.281376,13.18686075,.0002043,87.9169,335.9471,86.8938,273.2428,0,U,49104,999,23684,.14775E-3,.71E-6,0
ONEWEB-0319,2021-075AG,2026-06-14T19:39:54.684288,13.17648773,.0002246,87.9134,6.3393,77.2705,282.8678,0,U,49105,999,23329,.7466E-4,.42E-6,0
ONEWEB-0323,2021-075AH,2026-06-14T18:05:16.944576,13.12442749,.0002321,87.8948,351.1333,83.2653,276.8740,0,U,49106,999,23423,.67423E-4,.37E-6,0
ONEWEB-0329,2021-075AJ,2026-06-14T19:52:03.724896,13.17648720,.0002023,87.9134,6.3384,89.1787,270.9576,0,U,49107,999,23327,.74902E-4,.42E-6,0
ONEWEB-0330,2021-075AK,2026-06-14T20:26:17.851200,13.17649255,.0002047,87.9137,6.3537,93.4482,266.6884,0,U,49108,999,23331,.30401E-3,.131E-5,0
ONEWEB-0292,2021-083A,2026-06-14T17:28:09.536160,13.13471198,.0001934,87.8943,320.7282,91.6332,268.5019,0,U,49186,999,23060,.1066E-2,.402E-5,0
ONEWEB-0303,2021-083B,2026-06-14T17:22:35.823936,13.18686878,.0002004,87.9164,335.9465,89.5783,270.5579,0,U,49187,999,22965,.1079E-3,.55E-6,0
ONEWEB-0306,2021-083C,2026-06-14T20:46:32.776896,13.18687329,.0001722,87.9170,335.9059,98.8409,261.2918,0,U,49188,999,22971,-.70189E-5,.1E-6,0
ONEWEB-0307,2021-083D,2026-06-14T17:19:36.964704,13.13470623,.0001975,87.8949,320.7262,94.7109,265.4246,0,U,49189,999,23060,.95803E-3,.363E-5,0
ONEWEB-0320,2021-083E,2026-06-14T17:37:09.075648,13.18686007,.0001822,87.9158,335.9507,93.3094,266.8246,0,U,49190,999,22965,.15211E-3,.73E-6,0
ONEWEB-0321,2021-083F,2026-06-14T20:27:43.579008,13.20772201,.0001797,87.9191,274.9000,107.3922,252.7408,0,U,49191,999,23652,.10372E-4,.17E-6,0
ONEWEB-0322,2021-083G,2026-06-14T19:03:10.905408,13.13469645,.0001376,87.8950,320.7124,99.4135,260.7150,0,U,49192,999,23060,.39474E-3,.157E-5,0
ONEWEB-0324,2021-083H,2026-06-14T20:36:49.593312,13.18685163,.0001957,87.9170,335.9127,97.3770,262.7585,0,U,49193,999,22969,.54008E-5,.15E-6,0
ONEWEB-0325,2021-083J,2026-06-14T20:41:41.404128,13.18685757,.0001794,87.9161,335.9206,89.8255,270.3082,0,U,49194,999,22970,-.91089E-5,.9E-7,0
ONEWEB-0326,2021-083K,2026-06-14T17:25:13.154016,13.18685374,.0002035,87.9169,335.9456,85.7471,274.3893,0,U,49195,999,22967,.83723E-4,.46E-6,0
ONEWEB-0327,2021-083L,2026-06-14T17:24:48.898080,13.18684922,.0001993,87.9160,335.9500,81.1146,279.0211,0,U,49196,999,22969,.18587E-3,.86E-6,0
ONEWEB-0328,2021-083M,2026-06-14T20:38:16.744128,13.13470338,.0001942,87.8960,320.6721,99.3420,260.7929,0,U,49197,999,23059,-.8289E-4,-.18E-6,0
ONEWEB-0331,2021-083N,2026-06-14T17:15:18.148320,13.18686584,.000214,87.9169,335.9405,86.7192,273.4184,0,U,49198,999,22968,.67448E-5,.16E-6,0
ONEWEB-0333,2021-083P,2026-06-14T20:30:57.662784,13.13470752,.0001815,87.8948,320.6997,94.6560,265.4776,0,U,49199,999,23060,-.38017E-3,-.126E-5,0
ONEWEB-0334,2021-083Q,2026-06-14T08:08:35.449152,13.21115909,.00009521,87.9189,275.0121,165.4093,194.7068,0,U,49200,999,23641,.7360099E-1,.30192E-3,0
ONEWEB-0335,2021-083R,2026-06-14T20:23:39.040224,13.13470986,.000199,87.8952,320.6978,93.1078,267.0279,0,U,49201,999,23061,-.69898E-3,-.242E-5,0
ONEWEB-0336,2021-083S,2026-06-14T19:42:12.482784,13.13469685,.000223,87.8950,320.6989,93.3441,266.7944,0,U,49202,999,23060,.12695E-3,.59E-6,0
ONEWEB-0337,2021-083T,2026-06-14T19:56:38.393088,13.13469384,.000203,87.8949,320.7029,98.3302,261.8057,0,U,49203,999,23060,-.45963E-3,-.155E-5,0
ONEWEB-0338,2021-083U,2026-06-14T20:15:35.682336,13.20773717,.0001666,87.9182,274.9158,103.0348,257.0971,0,U,49204,999,23650,.15757E-4,.19E-6,0
ONEWEB-0339,2021-083V,2026-06-14T20:09:00.997632,13.13470124,.0001637,87.8949,320.6935,103.0428,257.0884,0,U,49205,999,23058,-.764E-3,-.266E-5,0
